start=new Date('2023-02-08T00:00:00.000Z').valueOf();
sats=[{"NORAD_CAT_ID":"47894","ELEMENT_SET_NO":"999","COUNTRY_CODE":"US","TLE_LINE1":"1 47894U 21021AL  23038.92464069  .00000176  00000-0  30706-4 0  9998","ARG_OF_PERICENTER":"98.1719","OBJECT_TYPE":"PAYLOAD","RCS_SIZE":"LARGE","MEAN_ANOMALY":"261.9429","MEAN_ELEMENT_THEORY":"SGP4","REV_AT_EPOCH":"10646","MEAN_MOTION_DDOT":"0.0000000000000","ECCENTRICITY":"0.00014070","EPOCH":"2023-02-07T22:11:28.955616","REF_FRAME":"TEME","PERIOD":"95.592","GP_ID":"224742264","DECAY_DATE":null,"FILE":"3777976","PERIAPSIS":"546.217","MEAN_MOTION_DOT":"0.00000176","OBJECT_ID":"2021-021AL","APOAPSIS":"548.166","TIME_SYSTEM":"UTC","CLASSIFICATION_TYPE":"U","MEAN_MOTION":"15.06407314","BSTAR":"0.00003070600000","TLE_LINE2":"2 47894  53.0522 285.3787 0001407  98.1719 261.9429 15.06407314106469","OBJECT_NAME":"STARLINK-2354","CENTER_NAME":"EARTH","SITE":"AFETR","EPHEMERIS_TYPE":"0","RA_OF_ASC_NODE":"285.3787","SEMIMAJOR_AXIS":"6925.326","INCLINATION":"53.0522","LAUNCH_DATE":"2021-03-14"},{"ARG_OF_PERICENTER":"98.8081","TLE_LINE1":"1 47895U 21021AM  23038.93569910  .00006116  00000-0  42899-3 0  9996","COUNTRY_CODE":"US","ELEMENT_SET_NO":"999","NORAD_CAT_ID":"47895","MEAN_MOTION_DDOT":"0.0000000000000","REV_AT_EPOCH":"10649","MEAN_ELEMENT_THEORY":"SGP4","MEAN_ANOMALY":"261.3030","RCS_SIZE":"LARGE","OBJECT_TYPE":"PAYLOAD","GP_ID":"224742514","PERIOD":"95.592","REF_FRAME":"TEME","ECCENTRICITY":"0.00010790","EPOCH":"2023-02-07T22:27:24.402240","PERIAPSIS":"546.437","FILE":"3777976","DECAY_DATE":null,"BSTAR":"0.00042899000000","MEAN_MOTION":"15.06409462","TIME_SYSTEM":"UTC","CLASSIFICATION_TYPE":"U","APOAPSIS":"547.932","OBJECT_ID":"2021-021AM","MEAN_MOTION_DOT":"0.00006116","CENTER_NAME":"EARTH","OBJECT_NAME":"STARLINK-2355","TLE_LINE2":"2 47895  53.0543 285.3251 0001079  98.8081 261.3030 15.06409462106494","SEMIMAJOR_AXIS":"6925.320","RA_OF_ASC_NODE":"285.3251","EPHEMERIS_TYPE":"0","SITE":"AFETR","LAUNCH_DATE":"2021-03-14","INCLINATION":"53.0543"},{"TLE_LINE1":"1 47896U 21021AN  23038.92878853  .00005593  00000-0  39395-3 0  9990","ARG_OF_PERICENTER":"85.2325","ELEMENT_SET_NO":"999","COUNTRY_CODE":"US","NORAD_CAT_ID":"47896","REV_AT_EPOCH":"10625","MEAN_MOTION_DDOT":"0.0000000000000","RCS_SIZE":"LARGE","MEAN_ANOMALY":"274.8818","MEAN_ELEMENT_THEORY":"SGP4","OBJECT_TYPE":"PAYLOAD","GP_ID":"224742754","PERIOD":"95.592","REF_FRAME":"TEME","ECCENTRICITY":"0.00013540","EPOCH":"2023-02-07T22:17:27.328992","FILE":"3777976","PERIAPSIS":"546.249","DECAY_DATE":null,"BSTAR":"0.00039395000000","MEAN_MOTION":"15.06408855","APOAPSIS":"548.124","CLASSIFICATION_TYPE":"U","TIME_SYSTEM":"UTC","OBJECT_ID":"2021-021AN","MEAN_MOTION_DOT":"0.00005593","OBJECT_NAME":"STARLINK-2356","CENTER_NAME":"EARTH","TLE_LINE2":"2 47896  53.0528 300.3604 0001354  85.2325 274.8818 15.06408855106257","RA_OF_ASC_NODE":"300.3604","SEMIMAJOR_AXIS":"6925.321","SITE":"AFETR","EPHEMERIS_TYPE":"0","LAUNCH_DATE":"2021-03-14","INCLINATION":"53.0528"},{"PERIOD":"95.591","GP_ID":"224741514","REF_FRAME":"TEME","ECCENTRICITY":"0.00013780","EPOCH":"2023-02-07T22:26:02.991840","FILE":"3777976","PERIAPSIS":"546.207","DECAY_DATE":null,"TLE_LINE1":"1 47897U 21021AP  23038.93475685  .00006122  00000-0  42931-3 0  9997","ARG_OF_PERICENTER":"99.8058","ELEMENT_SET_NO":"999","COUNTRY_CODE":"US","NORAD_CAT_ID":"47897","REV_AT_EPOCH":"10652","MEAN_MOTION_DDOT":"0.0000000000000","RCS_SIZE":"LARGE","MEAN_ANOMALY":"260.3087","MEAN_ELEMENT_THEORY":"SGP4","OBJECT_TYPE":"PAYLOAD","RA_OF_ASC_NODE":"285.3324","SEMIMAJOR_AXIS":"6925.297","SITE":"AFETR","EPHEMERIS_TYPE":"0","LAUNCH_DATE":"2021-03-14","INCLINATION":"53.0514","MEAN_MOTION":"15.06416917","BSTAR":"0.00042931000000","APOAPSIS":"548.116","TIME_SYSTEM":"UTC","CLASSIFICATION_TYPE":"U","OBJECT_ID":"2021-021AP","MEAN_MOTION_DOT":"0.00006122","OBJECT_NAME":"STARLINK-2357","CENTER_NAME":"EARTH","TLE_LINE2":"2 47897  53.0514 285.3324 0001378  99.8058 260.3087 15.06416917106520"},{"INCLINATION":"53.0509","LAUNCH_DATE":"2021-03-14","EPHEMERIS_TYPE":"0","SITE":"AFETR","SEMIMAJOR_AXIS":"6925.320","RA_OF_ASC_NODE":"285.3642","TLE_LINE2":"2 47898  53.0509 285.3642 0001112 109.9676 250.1432 15.06409256106465","CENTER_NAME":"EARTH","OBJECT_NAME":"STARLINK-2358","OBJECT_ID":"2021-021AQ","MEAN_MOTION_DOT":"0.00006479","BSTAR":"0.00045330000000","MEAN_MOTION":"15.06409256","TIME_SYSTEM":"UTC","CLASSIFICATION_TYPE":"U","APOAPSIS":"547.955","DECAY_DATE":null,"PERIAPSIS":"546.415","FILE":"3777976","ECCENTRICITY":"0.00011120","EPOCH":"2023-02-07T22:16:47.383680","GP_ID":"224741764","PERIOD":"95.592","REF_FRAME":"TEME","MEAN_ANOMALY":"250.1432","MEAN_ELEMENT_THEORY":"SGP4","RCS_SIZE":"LARGE","OBJECT_TYPE":"PAYLOAD","MEAN_MOTION_DDOT":"0.0000000000000","REV_AT_EPOCH":"10646","NORAD_CAT_ID":"47898","ARG_OF_PERICENTER":"109.9676","TLE_LINE1":"1 47898U 21021AQ  23038.92832620  .00006479  00000-0  45330-3 0  9994","COUNTRY_CODE":"US","ELEMENT_SET_NO":"999"},{"CENTER_NAME":"EARTH","OBJECT_NAME":"STARLINK-2359","TLE_LINE2":"2 47899  53.0537 275.3657 0000998  98.4106 261.6996 15.06408931106666","TIME_SYSTEM":"UTC","CLASSIFICATION_TYPE":"U","APOAPSIS":"547.877","BSTAR":"0.00037328000000","MEAN_MOTION":"15.06408931","MEAN_MOTION_DOT":"0.00005284","OBJECT_ID":"2021-021AR","LAUNCH_DATE":"2021-03-14","INCLINATION":"53.0537","SEMIMAJOR_AXIS":"6925.321","RA_OF_ASC_NODE":"275.3657","SITE":"AFETR","EPHEMERIS_TYPE":"0","MEAN_MOTION_DDOT":"0.0000000000000","REV_AT_EPOCH":"10666","OBJECT_TYPE":"PAYLOAD","MEAN_ANOMALY":"261.6996","MEAN_ELEMENT_THEORY":"SGP4","RCS_SIZE":"LARGE","COUNTRY_CODE":"US","ELEMENT_SET_NO":"999","ARG_OF_PERICENTER":"98.4106","TLE_LINE1":"1 47899U 21021AR  23038.92461723  .00005284  00000-0  37328-3 0  9998","NORAD_CAT_ID":"47899","PERIAPSIS":"546.495","FILE":"3777976","DECAY_DATE":null,"REF_FRAME":"TEME","PERIOD":"95.592","GP_ID":"224743015","EPOCH":"2023-02-07T22:11:26.928672","ECCENTRICITY":"0.00009980"},{"OBJECT_TYPE":"PAYLOAD","MEAN_ANOMALY":"283.9831","MEAN_ELEMENT_THEORY":"SGP4","RCS_SIZE":"LARGE","MEAN_MOTION_DDOT":"0.0000000000000","REV_AT_EPOCH":"10652","NORAD_CAT_ID":"47900","COUNTRY_CODE":"US","ELEMENT_SET_NO":"999","ARG_OF_PERICENTER":"76.1331","TLE_LINE1":"1 47900U 21021AS  23038.94950012  .00012261  00000-0  84023-3 0  9994","DECAY_DATE":null,"PERIAPSIS":"546.095","FILE":"3777976","EPOCH":"2023-02-07T22:47:16.810368","ECCENTRICITY":"0.00015510","REF_FRAME":"TEME","GP_ID":"224743255","PERIOD":"95.591","TLE_LINE2":"2 47900  53.0514 285.2713 0001551  76.1331 283.9831 15.06414634106523","CENTER_NAME":"EARTH","OBJECT_NAME":"STARLINK-2360","MEAN_MOTION_DOT":"0.00012261","OBJECT_ID":"2021-021AS","TIME_SYSTEM":"UTC","CLASSIFICATION_TYPE":"U","APOAPSIS":"548.243","BSTAR":"0.00084023000000","MEAN_MOTION":"15.06414634","INCLINATION":"53.0514","LAUNCH_DATE":"2021-03-14","EPHEMERIS_TYPE":"0","SITE":"AFETR","SEMIMAJOR_AXIS":"6925.304","RA_OF_ASC_NODE":"285.2713"},{"ECCENTRICITY":"0.00011160","EPOCH":"2023-02-07T21:56:54.214368","REF_FRAME":"TEME","GP_ID":"224742015","PERIOD":"95.592","DECAY_DATE":null,"PERIAPSIS":"546.422","FILE":"3777976","NORAD_CAT_ID":"47901","COUNTRY_CODE":"US","ELEMENT_SET_NO":"999","ARG_OF_PERICENTER":"99.1574","TLE_LINE1":"1 47901U 21021AT  23038.91451637  .00005691  00000-0  40059-3 0  9991","OBJECT_TYPE":"PAYLOAD","MEAN_ANOMALY":"260.9541","MEAN_ELEMENT_THEORY":"SGP4","RCS_SIZE":"LARGE","MEAN_MOTION_DDOT":"0.0000000000000","REV_AT_EPOCH":"10664","EPHEMERIS_TYPE":"0","SITE":"AFETR","SEMIMAJOR_AXIS":"6925.330","RA_OF_ASC_NODE":"275.5103","INCLINATION":"53.0509","LAUNCH_DATE":"2021-03-14","MEAN_MOTION_DOT":"0.00005691","OBJECT_ID":"2021-021AT","TIME_SYSTEM":"UTC","CLASSIFICATION_TYPE":"U","APOAPSIS":"547.967","MEAN_MOTION":"15.06406190","BSTAR":"0.00040059000000","TLE_LINE2":"2 47901  53.0509 275.5103 0001116  99.1574 260.9541 15.06406190106648","CENTER_NAME":"EARTH","OBJECT_NAME":"STARLINK-2361"},{"ECCENTRICITY":"0.00009260","EPOCH":"2023-02-07T21:33:00.187776","REF_FRAME":"TEME","GP_ID":"224742265","PERIOD":"95.592","DECAY_DATE":null,"PERIAPSIS":"546.545","FILE":"3777976","NORAD_CAT_ID":"47902","COUNTRY_CODE":"US","ELEMENT_SET_NO":"999","ARG_OF_PERICENTER":"87.6276","TLE_LINE1":"1 47902U 21021AU  23038.89791884  .00009063  00000-0  62636-3 0  9992","OBJECT_TYPE":"PAYLOAD","MEAN_ANOMALY":"272.4819","MEAN_ELEMENT_THEORY":"SGP4","RCS_SIZE":"LARGE","MEAN_MOTION_DDOT":"0.0000000000000","REV_AT_EPOCH":"10647","SITE":"AFETR","EPHEMERIS_TYPE":"0","SEMIMAJOR_AXIS":"6925.321","RA_OF_ASC_NODE":"295.5022","INCLINATION":"53.0506","LAUNCH_DATE":"2021-03-14","MEAN_MOTION_DOT":"0.00009063","OBJECT_ID":"2021-021AU","TIME_SYSTEM":"UTC","CLASSIFICATION_TYPE":"U","APOAPSIS":"547.827","BSTAR":"0.00062636000000","MEAN_MOTION":"15.06408926","TLE_LINE2":"2 47902  53.0506 295.5022 0000926  87.6276 272.4819 15.06408926106473","CENTER_NAME":"EARTH","OBJECT_NAME":"STARLINK-2362"},{"INCLINATION":"53.0495","LAUNCH_DATE":"2021-03-14","EPHEMERIS_TYPE":"0","SITE":"AFETR","SEMIMAJOR_AXIS":"6925.381","RA_OF_ASC_NODE":"275.3870","TLE_LINE2":"2 47903  53.0495 275.3870 0001463 104.3060 255.8092 15.06389285106994","CENTER_NAME":"EARTH","OBJECT_NAME":"STARLINK-2363","OBJECT_ID":"2021-021AV","MEAN_MOTION_DOT":"0.00009066","MEAN_MOTION":"15.06389285","BSTAR":"0.00062695000000","CLASSIFICATION_TYPE":"U","TIME_SYSTEM":"UTC","APOAPSIS":"548.260","DECAY_DATE":null,"PERIAPSIS":"546.233","FILE":"3777976","ECCENTRICITY":"0.00014630","EPOCH":"2023-02-07T22:06:08.759808","GP_ID":"224742515","PERIOD":"95.593","REF_FRAME":"TEME","MEAN_ELEMENT_THEORY":"SGP4","MEAN_ANOMALY":"255.8092","RCS_SIZE":"LARGE","OBJECT_TYPE":"PAYLOAD","MEAN_MOTION_DDOT":"0.0000000000000","REV_AT_EPOCH":"10699","NORAD_CAT_ID":"47903","ARG_OF_PERICENTER":"104.3060","TLE_LINE1":"1 47903U 21021AV  23038.92093472  .00009066  00000-0  62695-3 0  9993","COUNTRY_CODE":"US","ELEMENT_SET_NO":"999"}];
